TEMPEST-D               
1 43547U 98067NV  19117.88870227  .00004705  00000-0  69840-4 0  9991
2 43547  51.6383 246.0892 0005415 292.0058  68.0359 15.57317912 44508
RAINCUBE                
1 43548U 98067NW  19117.93067395  .00011073  00000-0  13915-3 0  9999
2 43548  51.6366 243.3645 0005718 302.1934  57.8505 15.60231030 44990
HALOSAT                 
1 43549U 98067NX  19117.80441952  .00010444  00000-0  13180-3 0  9996
2 43549  51.6371 244.0272 0005562 305.4462  54.6011 15.60192667 44539
ENDUROSAT ONE           
1 43551U 98067NZ  19117.80830354  .00012258  00000-0  14650-3 0  9995
2 43551  51.6376 242.5581 0006190 311.7804  48.2661 15.61432059 44961
EQUISAT                 
1 43552U 98067PA  19117.75231818  .00010112  00000-0  12644-3 0  9998
2 43552  51.6387 243.6961 0006339 310.8034  49.2409 15.60478190 44908
AEROCUBE 12A            
1 43556U 18046C   19118.00527899  .00001323  00000-0  59609-4 0  9994
2 43556  51.6422 304.5582 0007912 242.2929 117.7249 15.28546029 43652
AEROCUBE 12B            
1 43557U 18046D   19117.81858030  .00000291  00000-0  23091-4 0  9996
2 43557  51.6424 305.5590 0007837 241.9793 118.0394 15.28435229 43571
UITMSAT-1               
1 43589U 98067PD  19117.56455825  .00011140  00000-0  13886-3 0  9994
2 43589  51.6360 245.4073 0005671 317.4495  42.6059 15.60439261 40602
MAYA-1                  
1 43590U 98067PE  19117.62437373  .00011395  00000-0  14176-3 0  9996
2 43590  51.6366 245.0564 0005952 319.8070  40.2483 15.60462289 40542
BHUTAN-1                
1 43591U 98067PF  19117.61687285  .00011200  00000-0  13916-3 0  9991
2 43591  51.6376 245.0234 0005935 318.8215  41.2330 15.60515703 40541
SIRIUSSAT-1             
1 43595U 98067PG  19117.83436124  .00010471  00000-0  13402-3 0  9992
2 43595  51.6362 244.9602 0003619 278.4196  81.6387 15.59820006 39746
SIRIUSSAT-2             
1 43596U 98067PH  19117.92343163  .00011131  00000-0  14291-3 0  9994
2 43596  51.6374 244.8324 0004182 279.0525  80.9994 15.59658770 39753
TANUSHA-3               
1 43597U 98067PJ  19117.90210005  .00015364  00000-0  18608-3 0  9999
2 43597  51.6358 243.8911 0003916 293.7259  66.3324 15.60862568 39768
SURFSAT                 
1 43614U 18070B   19118.17675384  .00002226  00000-0  60876-4 0  9998
2 43614  93.0281 342.4240 0017951 137.2890 222.9762 15.37290373 34495
CP7 (DAVE)              
1 43615U 18070C   19117.85460062  .00001995  00000-0  54710-4 0  9990
2 43615  93.0282 342.2933 0017957 138.1864 222.0765 15.37226831 34448
ELFIN-B                 
1 43616U 18070D   19117.88143041  .00003134  00000-0  84372-4 0  9993
2 43616  93.0250 342.2257 0018715 141.6482 218.6107 15.37737434 34459
ELFIN-A                 
1 43617U 18070E   19117.94158790  .00002985  00000-0  80347-4 0  9999
2 43617  93.0305 342.4253 0017976 138.2062 222.0568 15.37767548 34463
CUBEBEL-1 (BSUSAT-1)    
1 43666U 18083E   19118.11899943  .00001167  00000-0  61562-4 0  9998
2 43666  97.5244 142.9414 0015625  15.1602  56.8058 15.17467141 27465
DEBRISSAT-2             
1 43680U 98067PR  19117.90278274  .00019359  00000-0  22985-3 0  9995
2 43680  51.6384 243.9212 0003618 311.3552  48.7130 15.61192213 48502
CICERO 10               
1 43690U 18088A   19117.86845813  .00001002  00000-0  45095-4 0  9999
2 43690  85.0394 352.6314 0016855  44.0742 316.1838 15.19558903 25466
IRVINE01                
1 43693U 18088D   19117.84722145  .00002283  00000-0  10026-3 0  9999
2 43693  85.0371 352.3566 0019856  30.0698 330.1679 15.21159304 25485
PROXIMA I               
1 43694U 18088E   19117.87346415  .00000880  00000-0  37323-4 0  9996
2 43694  85.0337 352.2007 0020370  21.3105 338.8980 15.21292110 25502
PROXIMA II              
1 43696U 18088G   19117.93857732  .00000867  00000-0  36758-4 0  9990
2 43696  85.0337 352.1584 0020391  21.0190 339.1885 15.21297711 25507
FACSAT-1                
1 43721U 18096C   19118.20228564  .00001553  00000-0  62771-4 0  9991
2 43721  97.4630 188.1465 0019136 147.3121 212.9305 15.26123410 22887
CENTAURI-2              
1 43722U 18096D   19118.18967430  .00001818  00000-0  72571-4 0  9994
2 43722  97.4629 188.1621 0019259 148.1626 212.0781 15.26312318 22870
INNOSAT-2               
1 43738U 18096V   19118.19183045  .00002598  00000-0  95928-4 0  9991
2 43738  97.4629 188.6177 0025481 160.8057 199.4148 15.28385724 22914
SIRION PATHFINDER-2     
1 43759U 18099B   19118.18596326 -.00000164  00000-0 -96301-5 0  9992
2 43759  97.7477 190.7936 0015494 129.2126 231.0473 14.95102639 21724
CORVUS-BC 4             
1 43767U 18099K   19118.17288527 -.00000128  00000-0 -64923-5 0  9996
2 43767  97.7465 190.6289 0012985 130.9981 229.2365 14.94548341 21722
SHIELDS 1               
1 43850U 18104B   19118.00323055  .00000041  00000-0  00000+0 0  9996
2 43850  85.0268  90.6100 0016176 151.9797 208.2304 15.21029708 20160
STF-1                   
1 43852U 18104D   19117.99139096  .00000041  00000-0  00000+0 0  9995
2 43852  85.0304  90.7810 0015168 165.1125 195.0762 15.20491920 20152
ZACUBE-2                
1 43907U 18111AH  19118.20461710  .00000473  00000-0  22227-4 0  9999
2 43907  97.2936  24.8458 0022000 168.5423 191.6320 15.24125003 18605
LUME 1                  
1 43908U 18111AJ  19117.80769365  .00000760  00000-0  33849-4 0  9993
2 43908  97.2935  24.4656 0021899 170.0893 190.0781 15.24216523 18540
AOBA VELOX-IV           
1 43940U 19003J   19118.12346544  .00001599  00000-0  69289-4 0  9994
2 43940  97.2806 177.5534 0022911 252.9928 163.4085 15.23601539 15231
CATSAT-2                
1 44029U 98067PV  19117.90911270  .00009829  00000-0  14806-3 0  9997
2 44029  51.6390 249.9802 0004843 315.9900  44.0705 15.55485987 13512
DELPHINI                
1 44030U 98067PW  19117.77862741  .00008536  00000-0  12925-3 0  9996
2 44030  51.6382 250.6043 0004664 313.5707  46.4897 15.55548215 13467
UNITE                   
1 44031U 98067PX  19117.85513073  .00005103  00000-0  81667-4 0  9994
2 44031  51.6386 250.3655 0003162 312.8771  47.1955 15.55012885 13476
TECHEDSAT 8             
1 44032U 98067PY  19117.85777529  .00021234  00000-0  28990-3 0  9995
2 44032  51.6379 249.6335 0004140 307.2510  52.8104 15.57417122 13464
CATSAT-1                
1 44033U 98067PZ  19117.58778344  .00007994  00000-0  12179-3 0  9991
2 44033  51.6393 251.5836 0004650 315.5805  44.4813 15.55478877 13370
